GLOBALSTAR M057         
1 25943U 99058A   25056.96584640 -.00000006  00000+0  78797-3 0  9991
2 25943  51.9994 303.8511 0002881 133.6575 226.4513 12.24814164153300
GLOBALSTAR M059         
1 25944U 99058B   25056.56601238 -.00000076  00000+0  12284-3 0  9997
2 25944  52.0011 149.1437 0001110 114.8175 348.0958 11.99974036560641
GLOBALSTAR M056         
1 25945U 99058C   25057.02642594 -.00000116  00000+0 -32835-3 0  9990
2 25945  51.9959 152.7094 0000356 354.6505 176.1864 12.04777091149279
GLOBALSTAR M031         
1 25946U 99058D   25057.20428933  .00000028  00000+0  12065-2 0  9992
2 25946  51.9974  51.1995 0001188 319.3546 123.7093 12.16030753151282
GLOBALSTAR M039         
1 25961U 99062A   25056.83731263 -.00000063  00000+0  22704-3 0  9997
2 25961  51.9825 247.8668 0003636  98.9475 261.1803 12.62319501166156
GLOBALSTAR M034         
1 25962U 99062B   25056.91785306 -.00000027  00000+0  84923-3 0  9995
2 25962  51.9881 300.6279 0013741 187.8042 185.3735 11.79444659125269
GLOBALSTAR M029         
1 25963U 99062C   25057.14594374 -.00000072  00000+0  17879-3 0  9991
2 25963  51.9820  35.7044 0002338 259.1872 182.8541 11.99891934155841
GLOBALSTAR M061         
1 25964U 99062D   25056.96192037 -.00000068  00000+0  20143-3 0  9994
2 25964  51.9782 123.0680 0006552 117.9205  54.4664 11.76770942108083
